NORAD_CAT_ID,OBJECT_NAME,OBJECT_TYPE,EPOCH,MEAN_MOTION,ECCENTRICITY,INCLINATION,RA_OF_ASC_NODE,ARG_OF_PERICENTER,MEAN_ANOMALY,BSTAR,MEAN_MOTION_DOT,MEAN_MOTION_DDOT,TLE_LINE0,TLE_LINE1,TLE_LINE2,SEMIMAJOR_AXIS,PERIOD,APOGEE,PERIGEE,DECAYED
52835.0,STARLINK-4080,PAYLOAD,2023-09-26 17:19:08,15.08842799,0.0001142,53.2164,91.7857,116.725,243.3859,-8.8511e-05,-1.696e-05,0.0,0 STARLINK-4080,1 52835U 22062F   23269.72162145 -.00001696  00000-0 -88511-4 0  9996,2 52835  53.2164  91.7857 0001142 116.7250 243.3859 15.08842799 70670,6917.872,95.437,540.527,538.947,0.0
52835.0,STARLINK-4080,PAYLOAD,2023-09-26 18:54:31,15.08843076,0.0001139,53.2164,91.4883,116.1631,243.9478,-8.6015e-05,-1.657e-05,0.0,0 STARLINK-4080,1 52835U 22062F   23269.78786099 -.00001657  00000-0 -86015-4 0  9996,2 52835  53.2164  91.4883 0001139 116.1631 243.9478 15.08843076 70682,6917.871,95.437,540.524,538.948,0.0
52835.0,STARLINK-4080,PAYLOAD,2023-09-27 12:23:45,15.08837933,0.0001062,53.2165,88.2181,103.923,256.1881,-9.6384e-07,-3.03e-06,0.0,0 STARLINK-4080,1 52835U 22062F   23270.51650269 -.00000303  00000-0 -96384-6 0  9997,2 52835  53.2165  88.2181 0001062 103.9230 256.1881 15.08837933 70793,6917.887,95.438,540.486,539.017,0.0
52835.0,STARLINK-4080,PAYLOAD,2023-09-27 18:45:17,15.08846113,0.0001061,53.2167,87.0283,99.9917,260.1195,9.424e-06,-1.38e-06,0.0,0 STARLINK-4080,1 52835U 22062F   23270.78145772 -.00000138  00000-0  94240-5 0  9997,2 52835  53.2167  87.0283 0001061  99.9917 260.1195 15.08846113 70838,6917.862,95.437,540.461,538.993,0.0
52835.0,STARLINK-4080,PAYLOAD,2023-09-28 12:14:32,15.08836218,0.0001168,53.217,83.758,84.1921,275.9205,0.00012535,1.707e-05,0.0,0 STARLINK-4080,1 52835U 22062F   23271.51010300  .00001707  00000-0  12535-3 0  9994,2 52835  53.2170  83.7580 0001168  84.1921 275.9205 15.08836218 70947,6917.892,95.438,540.565,538.949,0.0
52835.0,STARLINK-4080,PAYLOAD,2023-09-28 18:36:05,15.08838458,0.0001162,53.2171,82.5684,85.8889,274.2236,0.00013732,1.898e-05,0.0,0 STARLINK-4080,1 52835U 22062F   23271.77506223  .00001898  00000-0  13732-3 0  9997,2 52835  53.2171  82.5684 0001162  85.8889 274.2236 15.08838458 70983,6917.885,95.438,540.554,538.946,0.0
52835.0,STARLINK-4080,PAYLOAD,2023-09-29 15:16:06,15.08837975,0.000119,53.2174,78.7039,79.7929,280.3197,4.3193e-05,4e-06,0.0,0 STARLINK-4080,1 52835U 22062F   23272.63618746  .00000400  00000-0  43193-4 0  9990,2 52835  53.2174  78.7039 0001190  79.7929 280.3197 15.08837975 71118,6917.887,95.438,540.575,538.928,0.0
52835.0,STARLINK-4080,PAYLOAD,2023-09-30 18:17:39,15.08845864,0.0001198,53.2171,73.6495,78.2515,281.8611,9.7892e-05,1.271e-05,0.0,0 STARLINK-4080,1 52835U 22062F   23273.76226076  .00001271  00000-0  97892-4 0  9998,2 52835  53.2171  73.6495 0001198  78.2515 281.8611 15.08845864 71289,6917.862,95.437,540.556,538.899,0.0
52835.0,STARLINK-4080,PAYLOAD,2023-10-01 10:11:30,15.08839004,0.0001237,53.2172,70.6758,81.9871,278.1262,0.00016825,2.391e-05,0.0,0 STARLINK-4080,1 52835U 22062F   23274.42466185  .00002391  00000-0  16825-3 0  9999,2 52835  53.2172  70.6758 0001237  81.9871 278.1262 15.08839004 71380,6917.883,95.438,540.604,538.893,0.0
52835.0,STARLINK-4080,PAYLOAD,2023-10-01 18:08:25,15.08848715,0.0001167,53.217,69.1891,79.4592,280.6531,0.00011976,1.619e-05,0.0,0 STARLINK-4080,1 52835U 22062F   23274.75585631  .00001619  00000-0  11976-3 0  9997,2 52835  53.2170  69.1891 0001167  79.4592 280.6531 15.08848715 71435,6917.854,95.437,540.526,538.911,0.0
52835.0,STARLINK-4080,PAYLOAD,2023-10-02 05:16:08,15.08846723,0.0001195,53.2176,67.1067,80.2714,279.8413,1.1105e-05,-1.11e-06,0.0,0 STARLINK-4080,1 52835U 22062F   23275.21954062 -.00000111  00000-0  11105-4 0  9999,2 52835  53.2176  67.1067 0001195  80.2714 279.8413 15.08846723 71505,6917.86,95.437,540.552,538.898,0.0
52835.0,STARLINK-4080,PAYLOAD,2023-10-02 19:34:36,15.08846082,0.0001274,53.2173,64.4293,94.747,265.3667,1.8316e-05,4e-08,0.0,0 STARLINK-4080,1 52835U 22062F   23275.81569921  .00000004  00000-0  18316-4 0  9992,2 52835  53.2173  64.4293 0001274  94.7470 265.3667 15.08846082 71598,6917.862,95.437,540.608,538.845,0.0
52835.0,STARLINK-4080,PAYLOAD,2023-10-03 13:03:51,15.08836518,0.0001318,53.2175,61.1594,83.7358,276.3784,2.1676e-05,5.7e-07,0.0,0 STARLINK-4080,1 52835U 22062F   23276.54434536  .00000057  00000-0  21676-4 0  9997,2 52835  53.2175  61.1594 0001318  83.7358 276.3784 15.08836518 71708,6917.891,95.438,540.668,538.844,0.0
52835.0,STARLINK-4080,PAYLOAD,2023-10-03 14:39:14,15.08837347,0.0001384,53.2173,60.8605,86.8646,273.2505,3.6443e-05,2.92e-06,0.0,0 STARLINK-4080,1 52835U 22062F   23276.61058455  .00000292  00000-0  36443-4 0  9996,2 52835  53.2173  60.8605 0001384  86.8646 273.2505 15.08837347 71711,6917.888,95.438,540.711,538.796,0.0
52835.0,STARLINK-4080,PAYLOAD,2023-10-03 16:14:37,15.08845585,0.0001282,53.2174,60.5632,94.0218,266.0921,8.7596e-06,-1.48e-06,0.0,0 STARLINK-4080,1 52835U 22062F   23276.67681948 -.00000148  00000-0  87596-5 0  9998,2 52835  53.2174  60.5632 0001282  94.0218 266.0921 15.08845585 71728,6917.863,95.437,540.615,538.841,0.0
52835.0,STARLINK-4080,PAYLOAD,2023-10-04 12:54:38,15.08834676,0.0001389,53.217,56.6976,91.1152,268.9999,7.4607e-05,8.99e-06,0.0,0 STARLINK-4080,1 52835U 22062F   23277.53794734  .00000899  00000-0  74607-4 0  9992,2 52835  53.2170  56.6976 0001389  91.1152 268.9999 15.08834676 71853,6917.897,95.438,540.723,538.801,0.0
52835.0,STARLINK-4080,PAYLOAD,2023-10-04 17:40:47,15.08838557,0.0001263,53.2179,55.8045,96.0301,264.0835,7.2873e-06,-1.72e-06,0.0,0 STARLINK-4080,1 52835U 22062F   23277.73666630 -.00000172  00000-0  72873-5 0  9996,2 52835  53.2179  55.8045 0001263  96.0301 264.0835 15.08838557 71882,6917.885,95.438,540.624,538.876,0.0
52835.0,STARLINK-4080,PAYLOAD,2023-10-05 12:45:25,15.08845464,0.0001417,53.2186,52.2384,96.8108,263.3046,0.00012015,1.625e-05,0.0,0 STARLINK-4080,1 52835U 22062F   23278.53154090  .00001625  00000-0  12015-3 0  9990,2 52835  53.2186  52.2384 0001417  96.8108 263.3046 15.08845464 72007,6917.864,95.437,540.709,538.748,0.0
52835.0,STARLINK-4080,PAYLOAD,2023-10-05 17:31:33,15.08857317,0.0001395,53.2176,51.347,80.8558,279.2592,0.00018061,2.589e-05,0.0,0 STARLINK-4080,1 52835U 22062F   23278.73025253  .00002589  00000-0  18061-3 0  9997,2 52835  53.2176  51.3470 0001395  80.8558 279.2592 15.08857317 72034,6917.827,95.436,540.657,538.727,0.0
52835.0,STARLINK-4080,PAYLOAD,2023-10-06 01:28:30,15.0883639,0.0001262,53.2191,49.8591,95.2214,264.8922,4.9607e-05,5.02e-06,0.0,0 STARLINK-4080,1 52835U 22062F   23279.06146825  .00000502  00000-0  49607-4 0  9997,2 52835  53.2191  49.8591 0001262  95.2214 264.8922 15.08836390 72089,6917.891,95.438,540.629,538.883,0.0
52835.0,STARLINK-4080,PAYLOAD,2023-10-06 09:25:27,15.08829756,0.0001495,53.2193,48.3741,107.8807,252.2348,1.5422e-05,-4.3e-07,0.0,0 STARLINK-4080,1 52835U 22062F   23279.39267589 -.00000043  00000-0  15422-4 0  9993,2 52835  53.2193  48.3741 0001495 107.8807 252.2348 15.08829756 72135,6917.912,95.438,540.811,538.742,0.0
52835.0,STARLINK-4080,PAYLOAD,2023-10-06 14:11:36,15.08833301,0.0001526,53.2192,47.4821,110.0031,250.1125,4.0807e-05,3.61e-06,0.0,0 STARLINK-4080,1 52835U 22062F   23279.59139367  .00000361  00000-0  40807-4 0  9994,2 52835  53.2192  47.4821 0001526 110.0031 250.1125 15.08833301 72167,6917.901,95.438,540.822,538.71,0.0
52835.0,STARLINK-4080,PAYLOAD,2023-10-06 15:46:59,15.08836721,0.0001499,53.2197,47.1886,111.1314,248.9839,8.5571e-05,1.074e-05,0.0,0 STARLINK-4080,1 52835U 22062F   23279.65763143  .00001074  00000-0  85571-4 0  9995,2 52835  53.2197  47.1886 0001499 111.1314 248.9839 15.08836721 72172,6917.89,95.438,540.792,538.718,0.0
52835.0,STARLINK-4080,PAYLOAD,2023-10-07 14:02:22,15.08842337,0.0001682,53.2194,43.026,113.7463,246.3705,3.5395e-06,-2.32e-06,0.0,0 STARLINK-4080,1 52835U 22062F   23280.58498789 -.00000232  00000-0  35395-5 0  9996,2 52835  53.2194  43.0260 0001682 113.7463 246.3705 15.08842337 72317,6917.873,95.437,540.902,538.575,0.0
52835.0,STARLINK-4080,PAYLOAD,2023-10-07 18:48:31,15.08850704,0.0001348,53.2175,42.1297,100.1654,259.9491,0.00013492,1.861e-05,0.0,0 STARLINK-4080,1 52835U 22062F   23280.78370363  .00001861  00000-0  13492-3 0  9995,2 52835  53.2175  42.1297 0001348 100.1654 259.9491 15.08850704 72349,6917.848,95.437,540.645,538.78,0.0
52835.0,STARLINK-4080,PAYLOAD,2023-10-08 01:10:04,15.08839853,0.0001539,53.2182,40.9381,86.6692,273.4476,-8.0022e-05,-1.561e-05,0.0,0 STARLINK-4080,1 52835U 22062F   23281.04866888 -.00001561  00000-0 -80022-4 0  9990,2 52835  53.2182  40.9381 0001539  86.6692 273.4476 15.08839853 72389,6917.881,95.438,540.811,538.681,0.0
52835.0,STARLINK-4080,PAYLOAD,2023-10-08 13:53:10,15.08840974,0.000156,53.2173,38.5603,90.5075,269.6096,0.00013202,1.814e-05,0.0,0 STARLINK-4080,1 52835U 22062F   23281.57859233  .00001814  00000-0  13202-3 0  9998,2 52835  53.2173  38.5603 0001560  90.5075 269.6096 15.08840974 72462,6917.877,95.437,540.822,538.663,0.0
52835.0,STARLINK-4080,PAYLOAD,2023-10-08 17:03:56,15.08854703,0.0001289,53.2172,37.9656,96.7223,263.3916,0.00033046,4.977e-05,0.0,0 STARLINK-4080,1 52835U 22062F   23281.71106485  .00004977  00000-0  33046-3 0  9999,2 52835  53.2172  37.9656 0001289  96.7223 263.3916 15.08854703 72482,6917.835,95.437,540.592,538.809,0.0
52835.0,STARLINK-4080,PAYLOAD,2023-10-09 13:43:57,15.0884216,0.0001269,53.2191,34.0986,85.1879,274.9258,8.4034e-06,-1.54e-06,0.0,0 STARLINK-4080,1 52835U 22062F   23282.57218807 -.00000154  00000-0  84034-5 0  9995,2 52835  53.2191  34.0986 0001269  85.1879 274.9258 15.08842160 72610,6917.874,95.437,540.617,538.861,0.0
52835.0,STARLINK-4080,PAYLOAD,2023-10-09 16:54:43,15.08834575,0.0001235,53.2188,33.5052,98.3313,261.7819,-0.0001073,-1.995e-05,0.0,0 STARLINK-4080,1 52835U 22062F   23282.70467100 -.00001995  00000-0 -10730-3 0  9997,2 52835  53.2188  33.5052 0001235  98.3313 261.7819 15.08834575 72636,6917.897,95.438,540.616,538.908,0.0
